{
  "links" : {
    "next" : "https://api.nasa.gov/neo/rest/v1/feed?start_date=2013-09-23&end_date=2013-09-23&detailed=true&api_key=t0TVs3DtDT2H8Oy2Zy8m2eVrNsAVKAexjcZXUckd",
    "prev" : "https://api.nasa.gov/neo/rest/v1/feed?start_date=2013-09-21&end_date=2013-09-21&detailed=true&api_key=t0TVs3DtDT2H8Oy2Zy8m2eVrNsAVKAexjcZXUckd",
    "self" : "https://api.nasa.gov/neo/rest/v1/feed?start_date=2013-09-22&end_date=2013-09-22&detailed=true&api_key=t0TVs3DtDT2H8Oy2Zy8m2eVrNsAVKAexjcZXUckd"
  },
  "element_count" : 5,
  "near_earth_objects" : {
    "2013-09-22" : [ {
      "links" : {
        "self" : "https://api.nasa.gov/neo/rest/v1/neo/3638240?api_key=t0TVs3DtDT2H8Oy2Zy8m2eVrNsAVKAexjcZXUckd"
      },
      "neo_reference_id" : "3638240",
      "name" : "(2013 JR7)",
      "nasa_jpl_url" : "http://ssd.jpl.nasa.gov/sbdb.cgi?sstr=3638240",
      "absolute_magnitude_h" : 26.8,
      "estimated_diameter" : {
        "kilometers" : {
          "estimated_diameter_min" : 0.0116025908,
          "estimated_diameter_max" : 0.0259441818
        },
        "meters" : {
          "estimated_diameter_min" : 11.6025908209,
          "estimated_diameter_max" : 25.9441817907
        },
        "miles" : {
          "estimated_diameter_min" : 0.0072095135,
          "estimated_diameter_max" : 0.0161209622
        },
        "feet" : {
          "estimated_diameter_min" : 38.066244069,
          "estimated_diameter_max" : 85.1187093863
        }
      },
      "is_potentially_hazardous_asteroid" : false,
      "close_approach_data" : [ {
        "close_approach_date" : "2013-09-22",
        "epoch_date_close_approach" : 1379833200000,
        "relative_velocity" : {
          "kilometers_per_second" : "5.1377040408",
          "kilometers_per_hour" : "18495.7345470209",
          "miles_per_hour" : "11492.5301689531"
        },
        "miss_distance" : {
          "astronomical" : "0.2665966167",
          "lunar" : "103.7060852051",
          "kilometers" : "39882288",
          "miles" : "24781704"
        },
        "orbiting_body" : "Earth"
      } ],
      "orbital_data" : {
        "orbit_id" : "5",
        "orbit_determination_date" : "2017-04-06 08:45:57",
        "orbit_uncertainty" : "8",
        "minimum_orbit_intersection" : ".0228844",
        "jupiter_tisserand_invariant" : "5.075",
        "epoch_osculation" : "2456416.5",
        "eccentricity" : ".2305078845537958",
        "semi_major_axis" : "1.2598467623369",
        "inclination" : "9.197786759033351",
        "ascending_node_longitude" : "43.26454981661536",
        "orbital_period" : "516.5055746366138",
        "perihelion_distance" : ".9694421502886723",
        "perihelion_argument" : "230.753095677144",
        "aphelion_distance" : "1.550251374385127",
        "perihelion_time" : "2456463.244308855864",
        "mean_anomaly" : "327.4196136218853",
        "mean_motion" : ".6969915092461046",
        "equinox" : "J2000"
      }
    }, {
      "links" : {
        "self" : "https://api.nasa.gov/neo/rest/v1/neo/3648763?api_key=t0TVs3DtDT2H8Oy2Zy8m2eVrNsAVKAexjcZXUckd"
      },
      "neo_reference_id" : "3648763",
      "name" : "(2013 TE4)",
      "nasa_jpl_url" : "http://ssd.jpl.nasa.gov/sbdb.cgi?sstr=3648763",
      "absolute_magnitude_h" : 25.1,
      "estimated_diameter" : {
        "kilometers" : {
          "estimated_diameter_min" : 0.0253837029,
          "estimated_diameter_max" : 0.0567596853
        },
        "meters" : {
          "estimated_diameter_min" : 25.3837029364,
          "estimated_diameter_max" : 56.7596852866
        },
        "miles" : {
          "estimated_diameter_min" : 0.0157726969,
          "estimated_diameter_max" : 0.0352688224
        },
        "feet" : {
          "estimated_diameter_min" : 83.279867942,
          "estimated_diameter_max" : 186.2194458756
        }
      },
      "is_potentially_hazardous_asteroid" : false,
      "close_approach_data" : [ {
        "close_approach_date" : "2013-09-22",
        "epoch_date_close_approach" : 1379833200000,
        "relative_velocity" : {
          "kilometers_per_second" : "8.5458193636",
          "kilometers_per_hour" : "30764.9497088429",
          "miles_per_hour" : "19116.1433343641"
        },
        "miss_distance" : {
          "astronomical" : "0.0808149438",
          "lunar" : "31.4370136261",
          "kilometers" : "12089743",
          "miles" : "7512218.5"
        },
        "orbiting_body" : "Earth"
      } ],
      "orbital_data" : {
        "orbit_id" : "6",
        "orbit_determination_date" : "2017-04-06 08:44:25",
        "orbit_uncertainty" : "8",
        "minimum_orbit_intersection" : ".0803413",
        "jupiter_tisserand_invariant" : "4.639",
        "epoch_osculation" : "2456568.5",
        "eccentricity" : ".2643938307123392",
        "semi_major_axis" : "1.42137831611342",
        "inclination" : "14.02804338145329",
        "ascending_node_longitude" : "188.5643022299836",
        "orbital_period" : "618.9605296984795",
        "perihelion_distance" : "1.045574658224739",
        "perihelion_argument" : "142.047444432524",
        "aphelion_distance" : "1.797181974002102",
        "perihelion_time" : "2456529.396406355310",
        "mean_anomaly" : "22.74344329992417",
        "mean_motion" : ".5816202855057179",
        "equinox" : "J2000"
      }
    }, {
      "links" : {
        "self" : "https://api.nasa.gov/neo/rest/v1/neo/3511833?api_key=t0TVs3DtDT2H8Oy2Zy8m2eVrNsAVKAexjcZXUckd"
      },
      "neo_reference_id" : "3511833",
      "name" : "(2010 EH43)",
      "nasa_jpl_url" : "http://ssd.jpl.nasa.gov/sbdb.cgi?sstr=3511833",
      "absolute_magnitude_h" : 18.8,
      "estimated_diameter" : {
        "kilometers" : {
          "estimated_diameter_min" : 0.4619074603,
          "estimated_diameter_max" : 1.0328564805
        },
        "meters" : {
          "estimated_diameter_min" : 461.9074602816,
          "estimated_diameter_max" : 1032.8564805039
        },
        "miles" : {
          "estimated_diameter_min" : 0.2870159005,
          "estimated_diameter_max" : 0.6417870641
        },
        "feet" : {
          "estimated_diameter_min" : 1515.4444719902,
          "estimated_diameter_max" : 3388.6368554964
        }
      },
      "is_potentially_hazardous_asteroid" : false,
      "close_approach_data" : [ {
        "close_approach_date" : "2013-09-22",
        "epoch_date_close_approach" : 1379833200000,
        "relative_velocity" : {
          "kilometers_per_second" : "18.7414794544",
          "kilometers_per_hour" : "67469.3260358224",
          "miles_per_hour" : "41922.8153915364"
        },
        "miss_distance" : {
          "astronomical" : "0.40539453",
          "lunar" : "157.6984710693",
          "kilometers" : "60646160",
          "miles" : "37683776"
        },
        "orbiting_body" : "Earth"
      } ],
      "orbital_data" : {
        "orbit_id" : "39",
        "orbit_determination_date" : "2016-11-02 07:18:37",
        "orbit_uncertainty" : "0",
        "minimum_orbit_intersection" : ".224962",
        "jupiter_tisserand_invariant" : "4.857",
        "epoch_osculation" : "2457600.5",
        "eccentricity" : ".04400484905449784",
        "semi_major_axis" : "1.277835746700622",
        "inclination" : "37.54560259848378",
        "ascending_node_longitude" : "5.429736962529145",
        "orbital_period" : "527.6075195027039",
        "perihelion_distance" : "1.22160477755062",
        "perihelion_argument" : "196.0425519998794",
        "aphelion_distance" : "1.334066715850624",
        "perihelion_time" : "2457401.233577998892",
        "mean_anomaly" : "135.9645366465087",
        "mean_motion" : ".6823253776582217",
        "equinox" : "J2000"
      }
    } ]
  }
}